{
    "links": {
        "self": "http://www.neowsapp.com/rest/v1/neo/3297352?api_key=iIulBulltgU6a56xZRHN4H3l9WmuAYTsLGpBGhQ2"
    },
    "id": "3297352",
    "neo_reference_id": "3297352",
    "name": "(2005 UF5)",
    "designation": "2005 UF5",
    "nasa_jpl_url": "http://ssd.jpl.nasa.gov/sbdb.cgi?sstr=3297352",
    "absolute_magnitude_h": 24.3,
    "estimated_diameter": {
        "kilometers": {
            "estimated_diameter_min": 0.0366906138,
            "estimated_diameter_max": 0.0820427065
        },
        "meters": {
            "estimated_diameter_min": 36.6906137531,
            "estimated_diameter_max": 82.0427064882
        },
        "miles": {
            "estimated_diameter_min": 0.0227984834,
            "estimated_diameter_max": 0.0509789586
        },
        "feet": {
            "estimated_diameter_min": 120.3760332259,
            "estimated_diameter_max": 269.1689931548
        }
    },
    "is_potentially_hazardous_asteroid": false,
    "close_approach_data": [
        {
            "close_approach_date": "2005-10-23",
            "close_approach_date_full": "2005-Oct-23 00:01",
            "epoch_date_close_approach": 1130025660000,
            "relative_velocity": {
                "kilometers_per_second": "5.452228361",
                "kilometers_per_hour": "19628.0220997379",
                "miles_per_hour": "12196.0896208066"
            },
            "miss_distance": {
                "astronomical": "0.1472027855",
                "lunar": "57.2618835595",
                "kilometers": "22021223.168866885",
                "miles": "13683353.571597613"
            },
            "orbiting_body": "Earth"
        }
    ],
    "orbital_data": {
        "orbit_id": "8",
        "orbit_determination_date": "2017-04-06 09:10:07",
        "first_observation_date": "2005-10-26",
        "last_observation_date": "2005-11-10",
        "data_arc_in_days": 15,
        "observations_used": 19,
        "orbit_uncertainty": "9",
        "minimum_orbit_intersection": ".135243",
        "jupiter_tisserand_invariant": "3.195",
        "epoch_osculation": "2453673.5",
        "eccentricity": ".5585304168561598",
        "semi_major_axis": "2.562344911419999",
        "inclination": ".2642007840881659",
        "ascending_node_longitude": "4.56824999861173",
        "orbital_period": "1498.148314365827",
        "perihelion_distance": "1.131197339915327",
        "perihelion_argument": "22.51963810280229",
        "aphelion_distance": "3.99349248292467",
        "perihelion_time": "2453666.973519798393",
        "mean_anomaly": "1.568291236621047",
        "mean_motion": ".2402966358857398",
        "equinox": "J2000",
        "orbit_class": {
            "orbit_class_type": "AMO",
            "orbit_class_description": "Near-Earth asteroid orbits similar to that of 1221 Amor",
            "orbit_class_range": "1.017 AU < q (perihelion) < 1.3 AU"
        }
    },
    "is_sentry_object": false
}